OBJECT_NAME,OBJECT_ID,EPOCH,MEAN_MOTION,ECCENTRICITY,INCLINATION,RA_OF_ASC_NODE,ARG_OF_PERICENTER,MEAN_ANOMALY,EPHEMERIS_TYPE,CLASSIFICATION_TYPE,NORAD_CAT_ID,ELEMENT_SET_NO,REV_AT_EPOCH,BSTAR,MEAN_MOTION_DOT,MEAN_MOTION_DDOT
SL-16 R/B,1996-051B,2026-06-08T21:17:25.116000,14.12443167,.0014745,70.7634,342.2154,349.5138,10.5672,0,U,24298,999,53452,.95702E-4,.128E-5,0
ORBVIEW 2 (SEASTAR),1997-037A,2026-06-09T01:46:55.445376,14.35549281,.0002945,98.8682,326.8689,132.8752,227.2680,0,U,24883,999,52158,.93206E-4,.222E-5,0
SL-16 R/B,1998-045B,2026-06-08T23:19:33.265920,14.16204869,.0009524,71.0122,349.6072,251.7406,108.2681,0,U,25407,999,44002,.21756E-4,-.5E-7,0
ISS (ZARYA),1998-067A,2026-06-09T04:35:05.112096,15.49678250,.000689,51.6332,339.6717,149.5560,210.5830,0,U,25544,999,57051,.12924E-3,.6847E-4,0
CZ-4B R/B,1999-025C,2026-06-09T02:16:04.158912,14.18282081,.0038235,98.6486,202.1364,82.2573,332.9726,0,U,25732,999,40112,.43136E-4,.47E-6,0
SL-16 R/B,1999-039B,2026-06-09T03:08:53.012832,14.81837219,.001395,97.9841,219.0169,325.1334,34.8963,0,U,25861,999,45040,.61742E-4,.434E-5,0
DELTA 2 R/B,1999-041E,2026-06-08T02:46:25.817376,14.12000165,.05009452,51.7662,300.0336,255.1992,99.2946,0,U,25876,999,37580,.17901315E-3,.878E-5,0
HELIOS 1B,1999-064A,2026-06-09T04:14:03.602976,14.87985246,.00024,98.1623,65.0842,102.7217,257.4267,0,U,25977,999,69886,.14681E-3,.1288E-4,0
TERRA,1999-068A,2026-06-09T03:30:46.226304,14.61096650,.0000997,97.9459,210.0112,226.6941,217.2265,0,U,25994,999,40843,.77614E-4,.337E-5,0
SL-16 R/B,2000-006B,2026-06-09T00:15:50.838912,14.15836359,.0015105,71.0032,265.8166,35.8402,324.3731,0,U,26070,999,36148,-.1017E-3,-.248E-5,0
TITAN 4B R/B,2000-047B,2026-06-09T04:17:24.630720,15.10150049,.0045586,67.9873,143.1144,295.2212,64.4215,0,U,26474,999,40672,.16909E-3,.2693E-4,0
ENVISAT,2002-009A,2026-06-09T02:31:36.345792,14.39062928,.0001321,98.3831,111.6041,90.2141,284.9551,0,U,27386,999,27232,.38843E-4,.77E-6,0
IDEFIX & ARIANE 42P R/B,2002-021B,2026-06-09T02:08:17.293056,14.31078313,.0010613,98.5942,97.6601,280.5281,79.4706,0,U,27422,999,25709,.883E-4,.189E-5,0
AQUA,2002-022A,2026-06-09T04:33:17.784288,14.62145858,.0001425,98.4273,129.3131,53.8657,35.6396,0,U,27424,999,28210,.15345E-3,.722E-5,0
CZ-4B R/B,2002-024C,2026-06-09T02:43:07.233024,14.14563204,.0051069,98.8702,212.9855,122.7251,335.0322,0,U,27432,999,24216,.38431E-4,.31E-6,0
MIDORI II (ADEOS-II),2002-056A,2026-06-09T03:47:20.239296,14.29345228,.0002236,98.7874,119.3496,88.0789,272.0648,0,U,27597,999,22336,.11172E-3,.239E-5,0
CZ-4B R/B,2003-049C,2026-06-08T23:30:36.011808,14.55094791,.0047257,98.6896,158.4994,314.1946,45.5372,0,U,28059,999,19987,.83425E-4,.313E-5,0
CZ-2C R/B,2004-012C,2026-06-09T02:35:13.195104,15.77442882,.0008757,97.7081,234.8409,319.5397,40.5216,0,U,28222,999,21862,.4956E-3,.82418E-3,0
CZ-2C R/B,2004-046B,2026-06-08T11:55:42.384576,14.27024795,.01381499,98.1951,68.8204,246.1474,112.5178,0,U,28480,999,12145,.45413215E-4,.8E-6,0
ARIANE 5 R/B,2004-049H,2026-06-09T01:07:42.001824,14.85437409,.0084959,98.2718,331.9862,55.5593,305.3613,0,U,28499,999,15935,.80658E-4,.677E-5,0
CZ-2D R/B,2005-024B,2026-06-09T01:21:17.735328,15.68675206,.000466,97.3497,179.0839,71.6558,288.5210,0,U,28738,999,15406,.39209E-3,.44619E-3,0
ALOS (DAICHI),2006-002A,2026-06-09T03:02:34.867680,14.70033698,.0001753,98.1320,115.7195,60.7299,299.4082,0,U,28931,999,8691,.16506E-3,.941E-5,0
H-2A R/B,2006-002B,2026-06-09T03:28:07.404096,15.17961465,.0049626,98.2556,315.2476,290.3908,69.1997,0,U,28932,999,10830,.24688E-3,.5092E-4,0
RESURS-DK 1,2006-021A,2026-06-08T23:17:46.277664,15.13181097,.000651,69.9339,0.8220,298.3074,61.7435,0,U,29228,999,10133,.14091E-3,.2399E-4,0
CZ-4B R/B,2006-046C,2026-06-09T01:51:54.640800,15.17723411,.0031341,97.5456,204.7097,312.2930,47.5647,0,U,29507,999,7390,.17631E-3,.353E-4,0
CZ-2C R/B,2007-010B,2026-06-09T00:41:28.162752,14.20274340,.0059487,98.4091,268.7791,29.7224,330.7311,0,U,31114,999,99268,.53458E-4,.75E-6,0
